start=new Date('2023-04-17T00:00:00.000Z').valueOf();
sats=[{"OBJECT_ID":"2022-105X","PERIOD":"95.919","EPOCH":"2023-04-16T21:48:45.700992","MEAN_ANOMALY":"252.5175","ECCENTRICITY":"0.00007470","EPHEMERIS_TYPE":"0","TIME_SYSTEM":"UTC","ARG_OF_PERICENTER":"107.6130","MEAN_MOTION_DDOT":"0.0000000000000","INCLINATION":"97.6556","PERIAPSIS":"562.486","OBJECT_TYPE":"PAYLOAD","ELEMENT_SET_NO":"999","RCS_SIZE":"LARGE","FILE":"3888799","CENTER_NAME":"EARTH","TLE_LINE2":"2 53669  97.6556 348.8446 0000747 107.6130 252.5175 15.01262326 34532","TLE_LINE1":"1 53669U 22105X   23106.90886228  .00001408  00000-0  11416-3 0  9993","GP_ID":"230200052","SEMIMAJOR_AXIS":"6941.140","BSTAR":"0.00011416000000","MEAN_MOTION_DOT":"0.00001408","CLASSIFICATION_TYPE":"U","LAUNCH_DATE":"2022-08-31","MEAN_MOTION":"15.01262326","APOAPSIS":"563.523","SITE":"AFWTR","OBJECT_NAME":"STARLINK-4464","COUNTRY_CODE":"US","DECAY_DATE":null,"REF_FRAME":"TEME","RA_OF_ASC_NODE":"348.8446","MEAN_ELEMENT_THEORY":"SGP4","REV_AT_EPOCH":"3453","NORAD_CAT_ID":"53669"},{"PERIAPSIS":"562.087","OBJECT_TYPE":"PAYLOAD","RCS_SIZE":"LARGE","ELEMENT_SET_NO":"999","FILE":"3888799","CENTER_NAME":"EARTH","MEAN_MOTION_DDOT":"0.0000000000000","INCLINATION":"97.6562","EPHEMERIS_TYPE":"0","ARG_OF_PERICENTER":"100.7769","TIME_SYSTEM":"UTC","OBJECT_ID":"2022-105Y","PERIOD":"95.919","EPOCH":"2023-04-16T21:40:45.936480","MEAN_ANOMALY":"259.3605","ECCENTRICITY":"0.00013280","SEMIMAJOR_AXIS":"6941.144","BSTAR":"0.00011527000000","GP_ID":"230198340","TLE_LINE2":"2 53670  97.6562 348.8393 0001328 100.7769 259.3605 15.01260905 34534","TLE_LINE1":"1 53670U 22105Y   23106.90330945  .00001422  00000-0  11527-3 0  9994","APOAPSIS":"563.931","SITE":"AFWTR","MEAN_MOTION":"15.01260905","CLASSIFICATION_TYPE":"U","LAUNCH_DATE":"2022-08-31","MEAN_MOTION_DOT":"0.00001422","MEAN_ELEMENT_THEORY":"SGP4","NORAD_CAT_ID":"53670","REV_AT_EPOCH":"3453","REF_FRAME":"TEME","RA_OF_ASC_NODE":"348.8393","DECAY_DATE":null,"OBJECT_NAME":"STARLINK-4459","COUNTRY_CODE":"US"},{"REF_FRAME":"TEME","RA_OF_ASC_NODE":"348.8406","MEAN_ELEMENT_THEORY":"SGP4","NORAD_CAT_ID":"53671","REV_AT_EPOCH":"3453","COUNTRY_CODE":"US","OBJECT_NAME":"STARLINK-4440","DECAY_DATE":null,"MEAN_MOTION":"15.01264389","APOAPSIS":"564.110","SITE":"AFWTR","MEAN_MOTION_DOT":"0.00000416","CLASSIFICATION_TYPE":"U","LAUNCH_DATE":"2022-08-31","GP_ID":"230199088","SEMIMAJOR_AXIS":"6941.133","BSTAR":"0.00003699600000","TLE_LINE2":"2 53671  97.6562 348.8406 0001601 106.8224 253.3175 15.01264389 34533","TLE_LINE1":"1 53671U 22105Z   23106.90516297  .00000416  00000-0  36996-4 0  9991","MEAN_MOTION_DDOT":"0.0000000000000","INCLINATION":"97.6562","PERIAPSIS":"561.887","OBJECT_TYPE":"PAYLOAD","ELEMENT_SET_NO":"999","RCS_SIZE":"LARGE","FILE":"3888799","CENTER_NAME":"EARTH","OBJECT_ID":"2022-105Z","MEAN_ANOMALY":"253.3175","PERIOD":"95.919","EPOCH":"2023-04-16T21:43:26.080608","ECCENTRICITY":"0.00016010","EPHEMERIS_TYPE":"0","ARG_OF_PERICENTER":"106.8224","TIME_SYSTEM":"UTC"},{"NORAD_CAT_ID":"53672","REV_AT_EPOCH":"3449","MEAN_ELEMENT_THEORY":"SGP4","RA_OF_ASC_NODE":"348.5739","REF_FRAME":"TEME","DECAY_DATE":null,"COUNTRY_CODE":"US","OBJECT_NAME":"STARLINK-4428","SITE":"AFWTR","APOAPSIS":"564.074","MEAN_MOTION":"15.01260331","LAUNCH_DATE":"2022-08-31","CLASSIFICATION_TYPE":"U","MEAN_MOTION_DOT":"0.00000272","BSTAR":"0.00002580500000","SEMIMAJOR_AXIS":"6941.146","GP_ID":"230199841","TLE_LINE1":"1 53672U 22105AA  23106.63324583  .00000272  00000-0  25805-4 0  9994","TLE_LINE2":"2 53672  97.6566 348.5739 0001532 109.2562 250.8828 15.01260331 34494","FILE":"3888799","CENTER_NAME":"EARTH","ELEMENT_SET_NO":"999","RCS_SIZE":"LARGE","OBJECT_TYPE":"PAYLOAD","PERIAPSIS":"561.947","MEAN_MOTION_DDOT":"0.0000000000000","INCLINATION":"97.6566","TIME_SYSTEM":"UTC","ARG_OF_PERICENTER":"109.2562","EPHEMERIS_TYPE":"0","ECCENTRICITY":"0.00015320","PERIOD":"95.919","MEAN_ANOMALY":"250.8828","EPOCH":"2023-04-16T15:11:52.439712","OBJECT_ID":"2022-105AA"},{"DECAY_DATE":null,"OBJECT_NAME":"STARLINK-4456","COUNTRY_CODE":"US","REV_AT_EPOCH":"3456","NORAD_CAT_ID":"53673","MEAN_ELEMENT_THEORY":"SGP4","RA_OF_ASC_NODE":"349.3303","REF_FRAME":"TEME","LAUNCH_DATE":"2022-08-31","CLASSIFICATION_TYPE":"U","MEAN_MOTION_DOT":"0.00002009","SITE":"AFWTR","APOAPSIS":"566.727","MEAN_MOTION":"15.00451234","TLE_LINE1":"1 53673U 22105AB  23106.92489355  .00002009  00000-0  16438-3 0  9997","TLE_LINE2":"2 53673  97.6550 349.3303 0001758 103.5330 256.6090 15.00451234 34560","BSTAR":"0.00016438000000","SEMIMAJOR_AXIS":"6943.641","GP_ID":"230199553","ARG_OF_PERICENTER":"103.5330","TIME_SYSTEM":"UTC","EPHEMERIS_TYPE":"0","MEAN_ANOMALY":"256.6090","PERIOD":"95.971","EPOCH":"2023-04-16T22:11:50.802720","ECCENTRICITY":"0.00017580","OBJECT_ID":"2022-105AB","ELEMENT_SET_NO":"999","RCS_SIZE":"LARGE","CENTER_NAME":"EARTH","FILE":"3888799","PERIAPSIS":"564.285","OBJECT_TYPE":"PAYLOAD","INCLINATION":"97.6550","MEAN_MOTION_DDOT":"0.0000000000000"},{"PERIOD":"95.920","ECCENTRICITY":"0.00015930","MEAN_ANOMALY":"273.2568","EPOCH":"2023-04-16T15:08:51.974304","OBJECT_ID":"2022-105AC","ARG_OF_PERICENTER":"86.8839","TIME_SYSTEM":"UTC","EPHEMERIS_TYPE":"0","INCLINATION":"97.6569","MEAN_MOTION_DDOT":"0.0000000000000","ELEMENT_SET_NO":"999","RCS_SIZE":"LARGE","CENTER_NAME":"EARTH","FILE":"3888799","PERIAPSIS":"561.955","OBJECT_TYPE":"PAYLOAD","TLE_LINE1":"1 53674U 22105AC  23106.63115711  .00004638  00000-0  36563-3 0  9999","TLE_LINE2":"2 53674  97.6569 348.5723 0001593  86.8839 273.2568 15.01244053 34499","GP_ID":"230198841","BSTAR":"0.00036563000000","SEMIMAJOR_AXIS":"6941.196","MEAN_MOTION_DOT":"0.00004638","LAUNCH_DATE":"2022-08-31","CLASSIFICATION_TYPE":"U","MEAN_MOTION":"15.01244053","SITE":"AFWTR","APOAPSIS":"564.167","COUNTRY_CODE":"US","OBJECT_NAME":"STARLINK-4620","DECAY_DATE":null,"RA_OF_ASC_NODE":"348.5723","REF_FRAME":"TEME","NORAD_CAT_ID":"53674","REV_AT_EPOCH":"3449","MEAN_ELEMENT_THEORY":"SGP4"},{"TLE_LINE1":"1 53675U 22105AD  23106.63485252  .00000260  00000-0  24841-4 0  9994","TLE_LINE2":"2 53675  97.6559 348.5750 0001157  85.2032 274.9325 15.01261611 34491","GP_ID":"230199589","BSTAR":"0.00002484100000","SEMIMAJOR_AXIS":"6941.142","PERIOD":"95.919","EPOCH":"2023-04-16T15:14:11.257728","MEAN_ANOMALY":"274.9325","ECCENTRICITY":"0.00011570","OBJECT_ID":"2022-105AD","TIME_SYSTEM":"UTC","ARG_OF_PERICENTER":"85.2032","EPHEMERIS_TYPE":"0","MEAN_MOTION_DDOT":"0.0000000000000","INCLINATION":"97.6559","CENTER_NAME":"EARTH","FILE":"3888799","RCS_SIZE":"LARGE","ELEMENT_SET_NO":"999","OBJECT_TYPE":"PAYLOAD","PERIAPSIS":"562.204","OBJECT_NAME":"STARLINK-4617","COUNTRY_CODE":"US","DECAY_DATE":null,"RA_OF_ASC_NODE":"348.5750","REF_FRAME":"TEME","NORAD_CAT_ID":"53675","REV_AT_EPOCH":"3449","MEAN_ELEMENT_THEORY":"SGP4","MEAN_MOTION_DOT":"0.00000260","LAUNCH_DATE":"2022-08-31","CLASSIFICATION_TYPE":"U","MEAN_MOTION":"15.01261611","SITE":"AFWTR","APOAPSIS":"563.810"},{"LAUNCH_DATE":"2022-08-31","CLASSIFICATION_TYPE":"U","MEAN_MOTION_DOT":"0.00000890","SITE":"AFWTR","APOAPSIS":"564.198","MEAN_MOTION":"15.01263669","DECAY_DATE":null,"COUNTRY_CODE":"US","OBJECT_NAME":"STARLINK-4621","NORAD_CAT_ID":"53676","REV_AT_EPOCH":"3450","MEAN_ELEMENT_THEORY":"SGP4","RA_OF_ASC_NODE":"348.6364","REF_FRAME":"TEME","ARG_OF_PERICENTER":"95.5384","TIME_SYSTEM":"UTC","EPHEMERIS_TYPE":"0","PERIOD":"95.919","EPOCH":"2023-04-16T16:39:30.088800","MEAN_ANOMALY":"264.6037","ECCENTRICITY":"0.00017250","OBJECT_ID":"2022-105AE","RCS_SIZE":"LARGE","ELEMENT_SET_NO":"999","CENTER_NAME":"EARTH","FILE":"3888799","PERIAPSIS":"561.803","OBJECT_TYPE":"PAYLOAD","MEAN_MOTION_DDOT":"0.0000000000000","INCLINATION":"97.6581","TLE_LINE1":"1 53676U 22105AE  23106.69409825  .00000890  00000-0  73867-4 0  9994","TLE_LINE2":"2 53676  97.6581 348.6364 0001725  95.5384 264.6037 15.01263669 34507","BSTAR":"0.00007386700000","SEMIMAJOR_AXIS":"6941.136","GP_ID":"230199342"},{"APOAPSIS":"564.030","SITE":"AFWTR","MEAN_MOTION":"15.01261504","CLASSIFICATION_TYPE":"U","LAUNCH_DATE":"2022-08-31","MEAN_MOTION_DOT":"0.00000788","MEAN_ELEMENT_THEORY":"SGP4","NORAD_CAT_ID":"53677","REV_AT_EPOCH":"3449","REF_FRAME":"TEME","RA_OF_ASC_NODE":"348.5740","DECAY_DATE":null,"OBJECT_NAME":"STARLINK-4579","COUNTRY_CODE":"US","PERIAPSIS":"561.984","OBJECT_TYPE":"PAYLOAD","CENTER_NAME":"EARTH","FILE":"3888799","RCS_SIZE":"LARGE","ELEMENT_SET_NO":"999","MEAN_MOTION_DDOT":"0.0000000000000","INCLINATION":"97.6562","EPHEMERIS_TYPE":"0","TIME_SYSTEM":"UTC","ARG_OF_PERICENTER":"90.2929","OBJECT_ID":"2022-105AF","PERIOD":"95.919","EPOCH":"2023-04-16T15:11:31.314912","MEAN_ANOMALY":"269.8464","ECCENTRICITY":"0.00014740","SEMIMAJOR_AXIS":"6941.142","BSTAR":"0.00006596300000","GP_ID":"230200053","TLE_LINE2":"2 53677  97.6562 348.5740 0001474  90.2929 269.8464 15.01261504 34497","TLE_LINE1":"1 53677U 22105AF  23106.63300133  .00000788  00000-0  65963-4 0  9995"},{"DECAY_DATE":null,"OBJECT_NAME":"STARLINK-4418","COUNTRY_CODE":"US","MEAN_ELEMENT_THEORY":"SGP4","NORAD_CAT_ID":"53678","REV_AT_EPOCH":"3450","REF_FRAME":"TEME","RA_OF_ASC_NODE":"348.6357","CLASSIFICATION_TYPE":"U","LAUNCH_DATE":"2022-08-31","MEAN_MOTION_DOT":"0.00000710","APOAPSIS":"564.134","SITE":"AFWTR","MEAN_MOTION":"15.01264740","TLE_LINE2":"2 53678  97.6593 348.6357 0001638  91.6038 268.5373 15.01264740 34507","TLE_LINE1":"1 53678U 22105AG  23106.69224670  .00000710  00000-0  59891-4 0  9991","SEMIMAJOR_AXIS":"6941.132","BSTAR":"0.00005989100000","GP_ID":"230198341","EPHEMERIS_TYPE":"0","TIME_SYSTEM":"UTC","ARG_OF_PERICENTER":"91.6038","OBJECT_ID":"2022-105AG","ECCENTRICITY":"0.00016380","PERIOD":"95.919","MEAN_ANOMALY":"268.5373","EPOCH":"2023-04-16T16:36:50.114880","OBJECT_TYPE":"PAYLOAD","PERIAPSIS":"561.860","RCS_SIZE":"LARGE","ELEMENT_SET_NO":"999","FILE":"3888799","CENTER_NAME":"EARTH","INCLINATION":"97.6593","MEAN_MOTION_DDOT":"0.0000000000000"}];
